[{"OBJECT_NAME":"STARLINK-31357","OBJECT_ID":"2024-071U","EPOCH":"2026-03-08T11:03:35.968608","MEAN_MOTION":15.27591756,"ECCENTRICITY":0.00010138,"INCLINATION":43.0025,"RA_OF_ASC_NODE":347.0335,"ARG_OF_PERICENTER":264.2594,"MEAN_ANOMALY":95.8142,"EPHEMERIS_TYPE":0,"CLASSIFICATION_TYPE":"U","NORAD_CAT_ID":59502,"ELEMENT_SET_NO":999,"REV_AT_EPOCH":10801,"BSTAR":7.1267032e-5,"MEAN_MOTION_DOT":1.7e-5,"MEAN_MOTION_DDOT":0},{"OBJECT_NAME":"NUSAT-50 (NANCY ROMAN)","OBJECT_ID":"2024-149AB","EPOCH":"2026-03-09T19:15:16.765632","MEAN_MOTION":15.29713355,"ECCENTRICITY":0.00025229,"INCLINATION":97.3817,"RA_OF_ASC_NODE":150.7693,"ARG_OF_PERICENTER":238.0469,"MEAN_ANOMALY":122.0527,"EPHEMERIS_TYPE":0,"CLASSIFICATION_TYPE":"U","NORAD_CAT_ID":60493,"ELEMENT_SET_NO":999,"REV_AT_EPOCH":8693,"BSTAR":0.0004225155,"MEAN_MOTION_DOT":0.00012094,"MEAN_MOTION_DDOT":0}]
