STARLINK-31357          
1 59502U 24071U   26067.46083297  .00001700  00000+0  71267-4 0  9999
2 59502  43.0025 347.0335 0001013 264.2594  95.8142 15.27591756108016
NUSAT-50 (NANCY ROMAN)  
1 60493U 24149AB  26068.80227738  .00012094  00000+0  42252-3 0  9994
2 60493  97.3817 150.7693 0002523 238.0469 122.0527 15.29713355 86930
